{
  "norad_id": 63820,
  "name": "STARLINK-33794",
  "history": [
    {
      "epoch": "2026-03-28T15:49:10.998912Z",
      "apogee_km": 484.5574390617794,
      "perigee_km": 481.44646143895716,
      "latitude_deg": 1.9363683282189944e-05,
      "longitude_deg": 2.2311631202158395,
      "height_km": 482.5499911734616,
      "semi_major_axis_km": 6861.138950250368,
      "eccentricity": 0.00022671,
      "inclination_deg": 43.0059,
      "raan_deg": 65.6034,
      "arg_perigee_deg": 278.503,
      "mean_anomaly_deg": 81.5565,
      "mean_motion_rev_day": 15.27595745
    },
    {
      "epoch": "2026-03-29T23:12:19.212192Z",
      "apogee_km": 483.71144257996093,
      "perigee_km": 482.29393112065827,
      "latitude_deg": -1.3002622540566164e-05,
      "longitude_deg": -117.23065443067355,
      "height_km": 483.14356029112133,
      "semi_major_axis_km": 6861.13968685031,
      "eccentricity": 0.0001033,
      "inclination_deg": 43.0037,
      "raan_deg": 58.2148,
      "arg_perigee_deg": 239.0737,
      "mean_anomaly_deg": 121.0013,
      "mean_motion_rev_day": 15.27595499
    },
    {
      "epoch": "2026-03-30T05:28:56.654400Z",
      "apogee_km": 483.94998555777784,
      "perigee_km": 482.0349071067176,
      "latitude_deg": 1.3040850320239246e-05,
      "longitude_deg": 146.87987442701495,
      "height_km": 482.74228368040764,
      "semi_major_axis_km": 6861.129446332247,
      "eccentricity": 0.00013956,
      "inclination_deg": 43.0045,
      "raan_deg": 56.7391,
      "arg_perigee_deg": 271.6375,
      "mean_anomaly_deg": 88.4317,
      "mean_motion_rev_day": 15.27598919
    }
  ]
}